NOAA 12                 
1 21263U 91032A   24210.24371205  .00000220  00000+0  10950-3 0  9993
2 21263  98.5596 200.4374 0012627 239.4017 120.5918 14.26344071726993
NOAA 13                 
1 22739U 93050A   24210.13806882  .00000219  00000+0  13953-3 0  9990
2 22739  98.6083 166.0920 0008455 300.9335  59.1007 14.13246604596270
NOAA 14                 
1 23455U 94089A   24210.19120211  .00000112  00000+0  79720-4 0  9997
2 23455  98.4339 203.9269 0008251 264.1741  95.8492 14.14414345526033
NOAA 15                 
1 25338U 98030A   24210.82705470  .00000378  00000+0  17417-3 0  9993
2 25338  98.5671 237.0819 0009980 196.5455 163.5402 14.26641087363372
NOAA 16                 
1 26536U 00055A   24210.13635170  .00000145  00000+0  98818-4 0  9994
2 26536  98.5291 247.8576 0011549 116.1956 244.0406 14.13606728229861
NOAA 17                 
1 27453U 02032A   24210.19717674  .00000306  00000+0  14793-3 0  9994
2 27453  98.7646 160.7711 0011493 184.0506 176.0582 14.25626095148808
NOAA 18                 
1 28654U 05018A   24210.83752038  .00000322  00000+0  19515-3 0  9994
2 28654  98.8733 287.4557 0013242 307.5682  52.4286 14.13264700989142
NOAA 19                 
1 33591U 09005A   24210.79488965  .00000292  00000+0  18054-3 0  9993
2 33591  99.0447 267.0297 0014084 170.9419 189.2009 14.13058825797501
SUOMI NPP               
1 37849U 11061A   24210.84022902  .00000158  00000+0  95751-4 0  9990
2 37849  98.7222 148.1959 0001781 109.5035 250.6334 14.19536212660773
NOAA 20 (JPSS-1)        
1 43013U 17073A   24210.85724372  .00000167  00000+0  99918-4 0  9999
2 43013  98.7065 148.0819 0002353  95.3651 264.7794 14.19549561346817
NOAA 21 (JPSS-2)        
1 54234U 22150A   24210.18815233  .00000164  00000+0  98612-4 0  9998
2 54234  98.7518 147.6030 0001725  63.4189 296.7163 14.19535498 88790
ISS (ZARYA)             
1 25544U 98067A   24211.00421373  .00022646  00000+0  39710-3 0  9992
2 25544  51.6398 108.1532 0009963 118.6576   2.4370 15.50418603465032
CSS (TIANHE)            
1 48274U 21035A   24210.83536654  .00016899  00000+0  21345-3 0  9995
2 48274  41.4677 188.9591 0001720 314.5855  45.4842 15.59163117185615
ISS (NAUKA)             
1 49044U 21066A   24209.88679847  .00028011  00000+0  48980-3 0  9993
2 49044  51.6380 113.6992 0009932 115.5427 244.6590 15.50370398170903
FREGAT DEB              
1 49271U 11037PF  24210.30394601  .00009385  00000+0  18371-1 0  9995
2 49271  51.6739 229.5380 0994279 215.7768 137.2369 12.19713976140216
CSS (WENTIAN)           
1 53239U 22085A   24209.93860865  .00018320  00000+0  23127-3 0  9992
2 53239  41.4678 194.4034 0001905 313.6182  46.4498 15.59133148183375
CSS (MENGTIAN)          
1 54216U 22143A   24209.93860865  .00018320  00000+0  23127-3 0  9993
2 54216  41.4678 194.4034 0001905 313.6182  46.4498 15.59133148 98051
TIANZHOU-7              
1 58811U 24013A   24209.93860865  .00018320  00000+0  23127-3 0  9996
2 58811  41.4678 194.4034 0001905 313.6182  46.4498 15.59133148183376
PROGRESS-MS 26          
1 58961U 24029A   24209.88679847  .00028011  00000+0  48980-3 0  9993
2 58961  51.6380 113.6992 0009932 115.5427 244.6590 15.50370398 25034
CREW DRAGON 8           
1 59097U 24042A   24209.88679847  .00028011  00000+0  48980-3 0  9999
2 59097  51.6380 113.6992 0009932 115.5427 244.6590 15.50370398 22245
SOYUZ-MS 25             
1 59294U 24055A   24209.88679847  .00028011  00000+0  48980-3 0  9992
2 59294  51.6380 113.6992 0009932 115.5427 244.6590 15.50370398 19554
MICROORBITER-1          
1 59483U 98067WF  24210.71689893  .00283002  00000+0  13281-2 0  9990
2 59483  51.6282  98.9306 0007031 159.9250 200.2030 15.81808507 17011
CURTIS                  
1 59507U 98067WG  24209.91811176  .00143962  00000+0  10906-2 0  9999
2 59507  51.6287 105.6196 0006189 136.6672 223.4813 15.71390580 16863
KASHIWA                 
1 59508U 98067WH  24209.89320290  .00545030  00000+0  17492-2 0  9998
2 59508  51.6230 101.6475 0007577 173.4663 186.6443 15.89046383 16912
1998-067WJ              
1 59559U 98067WJ  24210.89375619  .00122822  00000+0  99709-3 0  9993
2 59559  51.6324 101.6603 0004774 118.8149 241.3328 15.69820564 15877
1998-067WK              
1 59560U 98067WK  24210.77447146  .01460815  13583-2  19163-2 0  9993
2 59560  51.6188  95.5033 0008979 219.8472 140.1882 16.06467715 15864
1998-067WL              
1 59561U 98067WL  24209.44723964  .00045557  00000+0  56440-3 0  9999
2 59561  51.6335 112.2606 0004624 100.8046 259.3468 15.59587106 15576
BURSTCUBE               
1 59562U 98067WM  24210.82783990  .00133449  00000+0  10694-2 0  9997
2 59562  51.6327 101.9751 0006325 139.2078 220.9393 15.70082912 15844
SNOOPI                  
1 59563U 98067WN  24210.85008250  .00104573  00000+0  95785-3 0  9991
2 59563  51.6341 102.8831 0005866 138.5945 221.5496 15.66938386 15823
SHENZHOU-18 (SZ-18)     
1 59591U 24078A   24209.93860865  .00018320  00000+0  23127-3 0  9993
2 59591  41.4678 194.4034 0001905 313.6182  46.4498 15.59133148 13240
1998-067WP              
1 59596U 98067WP  24210.74093016  .00204240  00000+0  12363-2 0  9991
2 59596  51.6292 100.6204 0005164 138.8455 221.2935 15.76416248 15884
1998-067WQ              
1 59597U 98067WQ  24210.86015794  .00212249  00000+0  12664-2 0  9994
2 59597  51.6342  99.9393 0005246 139.4226 220.7165 15.76718506 15874
SZ-17 MODULE            
1 59624U 23164C   24210.13507782  .00039526  00000+0  33557-3 0  9994
2 59624  41.4750 191.5141 0007819 192.9354 167.1288 15.68831634 13966
PROGRESS-MS 27          
1 59913U 24103A   24209.88679847  .00028011  00000+0  48980-3 0  9994
2 59913  51.6380 113.6992 0009932 115.5427 244.6590 15.50370398  8998
STARLINER CFT-1         
1 59968U 24109A   24209.88679847  .00028011  00000+0  48980-3 0  9990
2 59968  51.6380 113.6992 0009932 115.5427 244.6590 15.50370398  7740
